ONEWEB-0597             
1 54663U 22166X   25199.54105666  .00000091  00000+0  18863-3 0  9998
2 54663  87.9280 310.5492 0002027 105.5088 254.6270 13.21825589127934
ONEWEB-0600             
1 54664U 22166Y   25199.22093272  .00000028  00000+0  36714-4 0  9999
2 54664  87.9268 310.6108 0002060 103.3193 256.8171 13.21824910127869
ONEWEB-0601             
1 54665U 22166Z   25199.21304612 -.00000009  00000+0 -54275-4 0  9995
2 54665  87.9279 310.6255 0001867 110.8999 249.2335 13.21825658128045
ONEWEB-0602             
1 54666U 22166AA  25199.55682900  .00000144  00000+0  31797-3 0  9993
2 54666  87.9280 310.5574 0002135 107.2248 252.9120 13.21825648127947
ONEWEB-0603             
1 54667U 22166AB  25199.25878904  .00000057  00000+0  10746-3 0  9996
2 54667  87.9263 310.5552 0001999 107.6507 252.4846 13.21826323127822
ONEWEB-0604             
1 54668U 22166AC  25199.54895526  .00000050  00000+0  89549-4 0  9999
2 54668  87.9276 310.5186 0002095 106.3689 253.7675 13.21825066127833
ONEWEB-0605             
1 54669U 22166AD  25199.23984904  .00000011  00000+0 -48847-5 0  9990
2 54669  87.9276 310.6107 0001557 118.5760 241.5530 13.21825204127867
ONEWEB-0606             
1 54670U 22166AE  25199.56472272  .00000114  00000+0  24501-3 0  9990
2 54670  87.9274 310.5575 0001996  95.4963 264.6399 13.21825341127951
